[{"OBJECT_NAME":"STARLINK-5895","OBJECT_ID":"2023-037BC","EPOCH":"2026-03-09T22:23:45.381696","MEAN_MOTION":15.07243555,"ECCENTRICITY":0.00049855,"INCLINATION":69.9972,"RA_OF_ASC_NODE":260.028,"ARG_OF_PERICENTER":264.4993,"MEAN_ANOMALY":95.5602,"EPHEMERIS_TYPE":0,"CLASSIFICATION_TYPE":"U","NORAD_CAT_ID":55964,"ELEMENT_SET_NO":999,"REV_AT_EPOCH":16460,"BSTAR":0.00072849946,"MEAN_MOTION_DOT":0.00010921,"MEAN_MOTION_DDOT":0},{"OBJECT_NAME":"STARLINK-34961","OBJECT_ID":"2025-179T","EPOCH":"2026-03-09T17:18:06.743232","MEAN_MOTION":15.05648156,"ECCENTRICITY":9.541e-5,"INCLINATION":97.6032,"RA_OF_ASC_NODE":113.0048,"ARG_OF_PERICENTER":116.9274,"MEAN_ANOMALY":243.205,"EPHEMERIS_TYPE":0,"CLASSIFICATION_TYPE":"U","NORAD_CAT_ID":65252,"ELEMENT_SET_NO":999,"REV_AT_EPOCH":3183,"BSTAR":0.00011293018,"MEAN_MOTION_DOT":1.569e-5,"MEAN_MOTION_DDOT":0}]
